[{"OBJECT_NAME":"STARLINK-34982","OBJECT_ID":"2025-179J","EPOCH":"2026-03-09T16:14:18.215808","MEAN_MOTION":15.05649934,"ECCENTRICITY":6.969e-5,"INCLINATION":97.603,"RA_OF_ASC_NODE":112.909,"ARG_OF_PERICENTER":117.7147,"MEAN_ANOMALY":242.4151,"EPHEMERIS_TYPE":0,"CLASSIFICATION_TYPE":"U","NORAD_CAT_ID":65243,"ELEMENT_SET_NO":999,"REV_AT_EPOCH":3197,"BSTAR":0.00016155937,"MEAN_MOTION_DOT":2.271e-5,"MEAN_MOTION_DDOT":0},{"OBJECT_NAME":"CZ-4B DEB","OBJECT_ID":"2008-053K","EPOCH":"2026-03-03T06:56:31.900704","MEAN_MOTION":15.04681815,"ECCENTRICITY":0.00115476,"INCLINATION":97.843,"RA_OF_ASC_NODE":88.8262,"ARG_OF_PERICENTER":63.9062,"MEAN_ANOMALY":296.3351,"EPHEMERIS_TYPE":0,"CLASSIFICATION_TYPE":"U","NORAD_CAT_ID":36289,"ELEMENT_SET_NO":999,"REV_AT_EPOCH":93214,"BSTAR":0.00025594062,"MEAN_MOTION_DOT":3.541e-5,"MEAN_MOTION_DDOT":0}]
